#aV2010 12 25  0  0   .00000000      96 DD+AD WGS84 FIT  NGA
## 1615 518400.00000000   900.00000000 55555  .0000000000000
+   32     1  2  3  4  5  6  7  8  9 10 11 12 13 14 15 16 17
+         18 19 20 21 22 23 24 25 26 27 28 29 30 31 32  0  0
+          0  0  0  0  0  0  0  0  0  0  0  0  0  0  0  0  0
+          0  0  0  0  0  0  0  0  0  0  0  0  0  0  0  0  0
+          0  0  0  0  0  0  0  0  0  0  0  0  0  0  0  0  0
++         0  0  0  0  0  0  0  0  0  0  0  0  0  0  0  0  0
++         0  0  0  0  0  0  0  0  0  0  0  0  0  0  0  0  0
++         0  0  0  0  0  0  0  0  0  0  0  0  0  0  0  0  0
++         0  0  0  0  0  0  0  0  0  0  0  0  0  0  0  0  0
++         0  0  0  0  0  0  0  0  0  0  0  0  0  0  0  0  0
%c cc cc ccc ccc cccc cccc cccc cccc ccccc ccccc ccccc ccccc
%c cc cc ccc ccc cccc cccc cccc cccc ccccc ccccc ccccc ccccc
%f  0.0000000  0.000000000  0.00000000000  0.000000000000000
%f  0.0000000  0.000000000  0.00000000000  0.000000000000000
%i    0    0    0    0      0      0      0      0         0
%i    0    0    0    0      0      0      0      0         0
/*      NGA, ST. LOUIS,MO.                                  
/*   EPHEMERIS COMPUTED FROM  3 DAYS OF DATA                
/* CCCCCCCCCCCCCCCCCCCCCCCCCCCCCCCCCCCCCCCCCCCCCCCCCCCCCCCCC
/* CCCCCCCCCCCCCCCCCCCCCCCCCCCCCCCCCCCCCCCCCCCCCCCCCCCCCCCCC
*  2010 12 25  5 45   .00000000                                                 
P  1   7705.204638 -18339.425537  17420.146311   -194.275131                    
V  1   7159.295927  21268.129882  19225.247868      -.033173                    
P  2  -4159.289100  15129.872302  21432.986502    310.709912                    
V  2 -26313.661941  -7232.316728   -474.309924       .022813                    
P  3   6351.368929 -22704.588308 -12308.974927    653.329187                    
V  3  12053.633024  -9835.770747  25516.566521       .052849                    
P  4 -16212.171097   9609.009587  18644.621934    253.701939                    
V  4 -22708.856862  -8096.847061 -15050.322818       .097915                    
P  5   1227.259301  25460.470304   7253.923757    -88.261653                    
V  5  -5095.368688  -8260.575697  29887.116278      -.059703                    
P  6  11761.955765 -22034.425372  -8587.038659    383.446612                    
V  6  10193.322006  -5855.265837  28646.033431      -.081731                    
P  7 -25945.856986  -5400.955658  -2986.094044       .827918                    
V  7  -3001.406768  -3195.520233  31599.721215       .005036                    
P  8 -23009.590957    967.090964 -13689.358366      7.090148                    
V  8 -15731.073679  -6883.536057  25392.875469       .000608                    
P  9  16531.182820  14744.501986 -15205.984849     51.004128                    
V  9 -18074.632817  -3217.517972 -23606.793934       .024179                    
P 10  -9536.446886  16447.203953  18188.834245    -61.320976                    
V 10  -7176.605227 -22644.971587  16894.682713      -.011635                    
P 11 -19482.747265 -12021.985042 -14051.593339   -113.978375                    
V 11  17535.833521  -2896.194923 -21968.849652      -.029164                    
P 12  11064.309516  22880.405306   8018.243767    -41.785651                    
V 12    279.548217  10293.833535 -29737.575276       .034046                    
P 13 -19024.506663    181.631507  18419.303213    288.043030                    
V 13  17432.431382 -15908.273136  17985.549409      -.011662                    
P 14  21424.578644 -14906.548269  -4355.144517    118.398555                    
V 14  -2897.090713   5402.555921 -31724.069368       .031059                    
P 15   6006.604629  15133.766169 -20944.138189   -168.319045                    
V 15 -19385.318612  18362.653431   7853.771867       .040761                    
P 16   2546.871672 -23810.288635  11208.186433   -137.203313                    
V 16   5258.486285  13447.238143  27723.639798      -.031102                    
P 17 -21572.984373  13857.439388  -6348.155227    180.388730                    
V 17   4103.760045  -7736.479558 -30506.893632       .007922                    
P 18  16327.388026   3778.629286 -20380.908740    112.181703                    
V 18   5181.525460  26074.871312   8488.032058       .021341                    
P 19  -1406.492277 -17173.498310 -20117.693220    -95.203585                    
V 19  20576.878431 -15375.141342  12007.754385      -.035144                    
P 20 -14001.348014 -19833.532299  10710.650740     48.966924                    
V 20   -861.389509 -14161.044396 -26920.611304      -.001175                    
P 21  26139.351810   4719.657237  -3837.550017   -111.826235                    
V 21   4143.421455   4544.214730  30200.166172      -.027167                    
P 22  13312.323747 -10009.298942 -20505.702757    156.384042                    
V 22   6911.778707  25647.889988  -8059.770595      -.006811                    
P 23 -11701.512695  -9662.728837  21808.753298    336.156949                    
V 23  20002.434367 -19111.706440   1937.598800      -.021918                    
P 24 -17841.480447 -15475.434584 -12387.529501    350.783132                    
V 24  15672.760417   2756.832618 -25637.079351       .033560                    
P 25  15999.340684  11076.608507  18060.926650    -59.821616                    
V 25   4449.978382  22579.450056 -17776.325028      -.022188                    
P 26  -7220.074620  20010.273552 -16196.143519    -80.247496                    
V 26 -15930.183279  11557.115353  22577.052698      -.087939                    
P 27  11365.141629  15087.238856 -18101.597658    220.301050                    
V 27 -23915.668608  -4212.922558 -17623.142823       .036465                    
P 28 -13752.097758   5666.151677 -21484.966697     11.087803                    
V 28  -6312.142377 -27770.850287  -3480.963514       .019151                    
P 29  18053.713873   1960.956291  19445.770201    173.085016                    
V 29 -17320.494521  17428.715315  14416.934040       .029273                    
P 30   9760.242647 -14797.490822  19377.183540    307.745328                    
V 30   8601.808441  24041.692765  13740.150038       .032057                    
P 31  13834.636356 -10318.845354  20456.804648     22.299609                    
V 31  24180.454200   7784.282317 -12370.561006       .040923                    
P 32  -7319.802943 -25417.717712   4452.928889   -160.582400                    
V 32   1645.470237  -5553.770591 -30751.066853      -.081740                    
EOF
